HODOYOSHI-4             
1 40011U 14033B   26157.81351478  .00002174  00000+0  24076-3 0  9990
2 40011  97.5455 343.1370 0023371 344.1705  15.8779 14.88107573647260
DEIMOS-2                
1 40013U 14033D   26157.79987355  .00002110  00000+0  20463-3 0  9994
2 40013  97.5835  32.6528 0001999  61.3078 298.8343 14.93696937636173
HODOYOSHI-3             
1 40015U 14033F   26157.40674962  .00001223  00000+0  14676-3 0  9994
2 40015  97.6410 320.8823 0033610  32.4637 327.8637 14.85366576646028
SPOT 7                  
1 40053U 14034A   26157.83970483  .00000489  00000+0  10903-3 0  9993
2 40053  98.0628 220.5976 0001196  82.2486 277.8851 14.60949370635628
SKYSAT-B                
1 40072U 14037D   26157.63502066  .00001618  00000+0  18297-3 0  9992
2 40072  98.3832 115.9991 0004696 324.8849  35.2055 14.88000738644391
WORLDVIEW-3 (WV-3)      
1 40115U 14048A   26157.85811859  .00000937  00000+0  11613-3 0  9997
2 40115  97.8566 232.8336 0001753  41.6155 318.5193 14.85005062640370
GAOFEN-2                
1 40118U 14049A   26157.83846272  .00000329  00000+0  49447-4 0  9998
2 40118  98.0108 222.0554 0005858 268.8006  91.2535 14.80887047637703
YAOGAN-21               
1 40143U 14053A   26157.86963920  .00009148  00000+0  35554-3 0  9995
2 40143  97.1479 198.5490 0009692 122.5758 237.6418 15.26220275653381
YAOGAN-22               
1 40275U 14063A   26157.69064211 -.00000014  00000+0  86436-4 0  9998
2 40275 100.7712 308.7901 0006101 209.3425 150.7345 13.15530720558436
ASNARO                  
1 40298U 14070A   26157.81937108  .00009829  00000+0  46870-3 0  9998
2 40298  97.3449 234.2155 0004582 201.0986 159.0060 15.19281288642433
YAOGAN-24               
1 40310U 14072A   26157.84707872  .00000621  00000+0  97347-4 0  9998
2 40310  98.1480 295.0983 0012791 300.5491  59.4455 14.76209463622192
CBERS 4                 
1 40336U 14079A   26157.86071955 -.00000017  00000+0  86736-5 0  9992
2 40336  98.3530 215.0160 0002057  73.4087 286.7325 14.35505815602473
YAOGAN-26               
1 40362U 14088A   26157.84979273  .00030145  00000+0  59827-3 0  9992
2 40362  97.0649 158.3039 0006754  90.7691 269.4334 15.46934002636106
SMAP                    
1 40376U 15003A   26157.82341008  .00000457  00000+0  97550-4 0  9991
2 40376  98.1276 165.0648 0001258  92.7343 267.4003 14.63357449606100
KOMPSAT-3A              
1 40536U 15014A   26157.80865534  .00028505  00000+0  42028-3 0  9997
2 40536  97.6889 148.4163 0055575 212.3310 147.4533 15.53522516620205
SENTINEL-2A             
1 40697U 15028A   26157.86503682  .00000181  00000+0  85589-4 0  9999
2 40697  98.5680 232.8629 0001084  85.2956 274.8351 14.30821060572250
GAOFEN-8                
1 40701U 15030A   26157.85964834  .00028956  00000+0  60191-3 0  9998
2 40701  97.6917 350.6127 0007975 225.2523 134.8076 15.45586637609853
CARBONITE 1 (CBNT-1)    
1 40718U 15032D   26157.79578499  .00002588  00000+0  31989-3 0  9995
2 40718  97.6506 336.2980 0013882 334.9260  25.1279 14.83558098587800
YAOGAN-27               
1 40878U 15040A   26157.84176674  .00000024  00000+0  17566-3 0  9994
2 40878 100.1155 144.6739 0007459 236.3897 123.6506 13.16070243516304
GAOFEN-9 01             
1 40894U 15047A   26157.87335737  .00001034  00000+0  13308-3 0  9991
2 40894  97.6284 194.0365 0027578 170.7700 189.4027 14.82864044578666
YAOGAN-28               
1 41026U 15064A   26157.84036833  .00008268  00000+0  31157-3 0  9998
2 41026  97.3065 296.3149 0009729 221.2889 138.7615 15.27285853589108
YAOGAN-29               
1 41038U 15069A   26157.85516682  .00000726  00000+0  95833-4 0  9995
2 41038  98.0030 186.4719 0002993  70.7792 289.3745 14.83078182569098
KENT RIDGE 1            
1 41167U 15077B   26157.16161409  .00004828  00000+0  16723-3 0  9991
2 41167  14.9812 347.9786 0008308  82.2987 277.8279 15.23064317579415
GAOFEN-4                
1 41194U 15083A   26157.79613806 -.00000321  00000+0  00000+0 0  9992
2 41194   0.3301  83.7532 0004359 108.8481  94.9007  1.00269078 38426
JASON-3                 
1 41240U 16002A   26157.82787995 -.00000050  00000+0  46604-4 0  9995
2 41240  66.0390 147.6145 0008595 273.1999  86.8037 12.87627766485913
SENTINEL-3A             
1 41335U 16011A   26157.83734507  .00000116  00000+0  65875-4 0  9995
2 41335  98.6250 225.3692 0001344 104.5932 255.5397 14.26737141536582
ZIYUAN 3-02 (ZY 3-02)   
1 41556U 16033A   26157.86387296  .00006256  00000+0  28157-3 0  9998
2 41556  97.3832 233.8354 0011754 330.6287  29.4286 15.21382238556417
CARTOSAT-2C             
1 41599U 16040A   26157.85164366  .00004844  00000+0  23294-3 0  9991
2 41599  97.4481 217.9716 0009579 164.0386 196.1152 15.19233483552145
SKYSAT-C1               
1 41601U 16040C   26157.59889065  .00011518  00000+0  32925-3 0  9993
2 41601  96.9566 189.8939 0004213  78.5375 281.6343 15.36120524556245
LAPAN-A3                
1 41603U 16040E   26157.87836156  .00003845  00000+0  12259-3 0  9991
2 41603  97.1490 154.3635 0011899  58.9108 301.3301 15.33039389553235
GAOFEN-3                
1 41727U 16049A   26157.88540230  .00000040  00000+0  25342-4 0  9995
2 41727  98.4014 165.8270 0001183  98.3966 261.7357 14.42214110517163
