OBJECT_NAME,OBJECT_ID,EPOCH,MEAN_MOTION,ECCENTRICITY,INCLINATION,RA_OF_ASC_NODE,ARG_OF_PERICENTER,MEAN_ANOMALY,EPHEMERIS_TYPE,CLASSIFICATION_TYPE,NORAD_CAT_ID,ELEMENT_SET_NO,REV_AT_EPOCH,BSTAR,MEAN_MOTION_DOT,MEAN_MOTION_DDOT
HODOYOSHI-4,2014-033B,2026-06-06T19:31:27.676992,14.88107573,.0023371,97.5455,343.1370,344.1705,15.8779,0,U,40011,999,64726,.24076E-3,.2174E-4,0
DEIMOS-2,2014-033D,2026-06-06T19:11:49.074720,14.93696937,.0001999,97.5835,32.6528,61.3078,298.8343,0,U,40013,999,63617,.20463E-3,.211E-4,0
HODOYOSHI-3,2014-033F,2026-06-06T09:45:43.167168,14.85366576,.00336104,97.6410,320.8823,32.4637,327.8637,0,U,40015,999,64602,.14675705E-3,.1223E-4,0
SPOT 7,2014-034A,2026-06-06T20:09:10.497312,14.60949370,.0001196,98.0628,220.5976,82.2486,277.8851,0,U,40053,999,63562,.10903E-3,.489E-5,0
SKYSAT-B,2014-037D,2026-06-06T15:14:25.785024,14.88000738,.0004696,98.3832,115.9991,324.8849,35.2055,0,U,40072,999,64439,.18297E-3,.1618E-4,0
WORLDVIEW-3 (WV-3),2014-048A,2026-06-06T20:35:41.446176,14.85005062,.0001753,97.8566,232.8336,41.6155,318.5193,0,U,40115,999,64037,.11613E-3,.937E-5,0
GAOFEN-2,2014-049A,2026-06-06T20:07:23.179008,14.80887047,.0005858,98.0108,222.0554,268.8006,91.2535,0,U,40118,999,63770,.49447E-4,.329E-5,0
YAOGAN-21,2014-053A,2026-06-06T20:52:16.826880,15.26220275,.0009692,97.1479,198.5490,122.5758,237.6418,0,U,40143,999,65338,.35554E-3,.9148E-4,0
YAOGAN-22,2014-063A,2026-06-06T16:34:31.478304,13.15530720,.0006101,100.7712,308.7901,209.3425,150.7345,0,U,40275,999,55843,.86436E-4,-.14E-6,0
ASNARO,2014-070A,2026-06-06T19:39:53.661312,15.19281288,.0004582,97.3449,234.2155,201.0986,159.0060,0,U,40298,999,64243,.4687E-3,.9829E-4,0
YAOGAN-24,2014-072A,2026-06-06T20:19:47.601408,14.76209463,.0012791,98.1480,295.0983,300.5491,59.4455,0,U,40310,999,62219,.97347E-4,.621E-5,0
CBERS 4,2014-079A,2026-06-06T20:39:26.169120,14.35505815,.0002057,98.3530,215.0160,73.4087,286.7325,0,U,40336,999,60247,.86736E-5,-.17E-6,0
YAOGAN-26,2014-088A,2026-06-06T20:23:42.091872,15.46934002,.0006754,97.0649,158.3039,90.7691,269.4334,0,U,40362,999,63610,.59827E-3,.30145E-3,0
SMAP,2015-003A,2026-06-06T19:45:42.630912,14.63357449,.0001258,98.1276,165.0648,92.7343,267.4003,0,U,40376,999,60610,.9755E-4,.457E-5,0
KOMPSAT-3A,2015-014A,2026-06-06T19:24:27.821376,15.53522516,.0055575,97.6889,148.4163,212.3310,147.4533,0,U,40536,999,62020,.42028E-3,.28505E-3,0
SENTINEL-2A,2015-028A,2026-06-06T20:45:39.181248,14.30821060,.0001084,98.5680,232.8629,85.2956,274.8351,0,U,40697,999,57225,.85589E-4,.181E-5,0
GAOFEN-8,2015-030A,2026-06-06T20:37:53.616576,15.45586637,.0007975,97.6917,350.6127,225.2523,134.8076,0,U,40701,999,60985,.60191E-3,.28956E-3,0
CARBONITE 1 (CBNT-1),2015-032D,2026-06-06T19:05:55.823136,14.83558098,.0013882,97.6506,336.2980,334.9260,25.1279,0,U,40718,999,58780,.31989E-3,.2588E-4,0
YAOGAN-27,2015-040A,2026-06-06T20:12:08.646336,13.16070243,.0007459,100.1155,144.6739,236.3897,123.6506,0,U,40878,999,51630,.17566E-3,.24E-6,0
GAOFEN-9 01,2015-047A,2026-06-06T20:57:38.076768,14.82864044,.0027578,97.6284,194.0365,170.7700,189.4027,0,U,40894,999,57866,.13308E-3,.1034E-4,0
YAOGAN-28,2015-064A,2026-06-06T20:10:07.823712,15.27285853,.0009729,97.3065,296.3149,221.2889,138.7615,0,U,41026,999,58910,.31157E-3,.8268E-4,0
YAOGAN-29,2015-069A,2026-06-06T20:31:26.413248,14.83078182,.0002993,98.0030,186.4719,70.7792,289.3745,0,U,41038,999,56909,.95833E-4,.726E-5,0
KENT RIDGE 1,2015-077B,2026-06-06T03:52:43.457376,15.23064317,.00083084,14.9812,347.9786,82.2987,277.8279,0,U,41167,999,57941,.16723478E-3,.4828E-4,0
GAOFEN-4,2015-083A,2026-06-06T19:06:26.328384,1.00269078,.0004359,0.3301,83.7532,108.8481,94.9007,0,U,41194,999,3842,0,-.321E-5,0
JASON-3,2016-002A,2026-06-06T19:52:08.827680,12.87627766,.0008595,66.0390,147.6145,273.1999,86.8037,0,U,41240,999,48591,.46604E-4,-.5E-6,0
SENTINEL-3A,2016-011A,2026-06-06T20:05:46.614048,14.26737141,.0001344,98.6250,225.3692,104.5932,255.5397,0,U,41335,999,53658,.65875E-4,.116E-5,0
ZIYUAN 3-02 (ZY 3-02),2016-033A,2026-06-06T20:43:58.623744,15.21382238,.0011754,97.3832,233.8354,330.6287,29.4286,0,U,41556,999,55641,.28157E-3,.6256E-4,0
CARTOSAT-2C,2016-040A,2026-06-06T20:26:22.012224,15.19233483,.0009579,97.4481,217.9716,164.0386,196.1152,0,U,41599,999,55214,.23294E-3,.4844E-4,0
SKYSAT-C1,2016-040C,2026-06-06T14:22:24.152160,15.36120524,.0004213,96.9566,189.8939,78.5375,281.6343,0,U,41601,999,55624,.32925E-3,.11518E-3,0
LAPAN-A3,2016-040E,2026-06-06T21:04:50.438784,15.33039389,.0011899,97.1490,154.3635,58.9108,301.3301,0,U,41603,999,55323,.12259E-3,.3845E-4,0
GAOFEN-3,2016-049A,2026-06-06T21:14:58.758720,14.42214110,.0001183,98.4014,165.8270,98.3966,261.7357,0,U,41727,999,51716,.25342E-4,.4E-6,0
